{"type": "FeatureCollection", "features": [ {"type": "Feature", "properties": {"norad_id": 58662, "name": "TIANMU-1 21", "group": "weather", "lat": 62.43269133123601, "lon": 100.26617099055322, "alt_km": 467.48804018819646, "timestamp": "2025-12-27T07:26:24.864521+00:00", "meta": {"OBJECT_NAME": "TIANMU-1 21", "OBJECT_ID": "2023-208C", "EPOCH": "2025-12-26T21:45:28.182816", "MEAN_MOTION": 15.31859038, "ECCENTRICITY": 0.00065536, "INCLINATION": 97.4371, "RA_OF_ASC_NODE": 114.3515, "ARG_OF_PERICENTER": 202.1922, "MEAN_ANOMALY": 157.9037, "EPHEMERIS_TYPE": 0, "CLASSIFICATION_TYPE": "U", "NORAD_CAT_ID": 58662, "ELEMENT_SET_NO": 999, "REV_AT_EPOCH": 11116, "BSTAR": 0.00039628135, "MEAN_MOTION_DOT": 0.00012125, "MEAN_MOTION_DDOT": 0}, "tle": {"line1": "1 58662U 23208C   25360.90657619  .00012125  00000+0  39628-3 0  9992", "line2": "2 58662  97.4371 114.3515 0006553 202.1922 157.9037 15.31859038111162"}}, "geometry": {"type": "Point", "coordinates": [100.26617099055322, 62.43269133123601]}}, {"type": "Feature", "properties": {"norad_id": 58663, "name": "TIANMU-1 22", "group": "weather", "lat": 42.166086135963084, "lon": -60.83243667139677, "alt_km": 478.39243989567603, "timestamp": "2025-12-27T07:26:24.864537+00:00", "meta": {"OBJECT_NAME": "TIANMU-1 22", "OBJECT_ID": "2023-208D", "EPOCH": "2025-12-26T22:58:54.516288", "MEAN_MOTION": 15.2784812, "ECCENTRICITY": 0.00030778, "INCLINATION": 97.4379, "RA_OF_ASC_NODE": 112.0209, "ARG_OF_PERICENTER": 215.7812, "MEAN_ANOMALY": 144.3221, "EPHEMERIS_TYPE": 0, "CLASSIFICATION_TYPE": "U", "NORAD_CAT_ID": 58663, "ELEMENT_SET_NO": 999, "REV_AT_EPOCH": 11100, "BSTAR": 0.00037365652, "MEAN_MOTION_DOT": 0.0001009, "MEAN_MOTION_DDOT": 0}, "tle": {"line1": "1 58663U 23208D   25360.95757542  .00010090  00000+0  37366-3 0  9990", "line2": "2 58663  97.4379 112.0209 0003077 215.7812 144.3221 15.27848120111005"}}, "geometry": {"type": "Point", "coordinates": [-60.83243667139677, 42.166086135963084]}}, {"type": "Feature", "properties": {"norad_id": 58700, "name": "TIANMU-1 15", "group": "weather", "lat": 78.91786130225219, "lon": 44.73576190669807, "alt_km": 487.3631265851127, "timestamp": "2025-12-27T07:26:24.864555+00:00", "meta": {"OBJECT_NAME": "TIANMU-1 15", "OBJECT_ID": "2024-004A", "EPOCH": "2025-12-26T23:08:04.955136", "MEAN_MOTION": 15.2460002, "ECCENTRICITY": 0.00061256, "INCLINATION": 97.4631, "RA_OF_ASC_NODE": 182.3802, "ARG_OF_PERICENTER": 229.7335, "MEAN_ANOMALY": 130.3367, "EPHEMERIS_TYPE": 0, "CLASSIFICATION_TYPE": "U", "NORAD_CAT_ID": 58700, "ELEMENT_SET_NO": 999, "REV_AT_EPOCH": 10951, "BSTAR": 0.0003356495, "MEAN_MOTION_DOT": 8.21e-05, "MEAN_MOTION_DDOT": 0}, "tle": {"line1": "1 58700U 24004A   25360.96394624  .00008210  00000+0  33565-3 0  9994", "line2": "2 58700  97.4631 182.3802 0006125 229.7335 130.3367 15.24600020109510"}}, "geometry": {"type": "Point", "coordinates": [44.73576190669807, 78.91786130225219]}}, {"type": "Feature", "properties": {"norad_id": 58701, "name": "TIANMU-1 16", "group": "weather", "lat": -1.2498771414765613, "lon": 1.938365803344712, "alt_km": 493.1304003682526, "timestamp": "2025-12-27T07:26:24.864571+00:00", "meta": {"OBJECT_NAME": "TIANMU-1 16", "OBJECT_ID": "2024-004B", "EPOCH": "2025-12-26T22:46:19.446816", "MEAN_MOTION": 15.24625956, "ECCENTRICITY": 0.00044734, "INCLINATION": 97.4571, "RA_OF_ASC_NODE": 181.7426, "ARG_OF_PERICENTER": 231.3751, "MEAN_ANOMALY": 128.7087, "EPHEMERIS_TYPE": 0, "CLASSIFICATION_TYPE": "U", "NORAD_CAT_ID": 58701, "ELEMENT_SET_NO": 999, "REV_AT_EPOCH": 10951, "BSTAR": 0.0003111739, "MEAN_MOTION_DOT": 7.61e-05, "MEAN_MOTION_DDOT": 0}, "tle": {"line1": "1 58701U 24004B   25360.94883619  .00007610  00000+0  31117-3 0  9994", "line2": "2 58701  97.4571 181.7426 0004473 231.3751 128.7087 15.24625956109519"}}, "geometry": {"type": "Point", "coordinates": [1.938365803344712, -1.2498771414765613]}}, {"type": "Feature", "properties": {"norad_id": 58702, "name": "TIANMU-1 17", "group": "weather", "lat": -82.26962424525638, "lon": -72.35550916380448, "alt_km": 497.1375111854286, "timestamp": "2025-12-27T07:26:24.864588+00:00", "meta": {"OBJECT_NAME": "TIANMU-1 17", "OBJECT_ID": "2024-004C", "EPOCH": "2025-12-26T23:58:03.961344", "MEAN_MOTION": 15.24670731, "ECCENTRICITY": 0.00036498, "INCLINATION": 97.4605, "RA_OF_ASC_NODE": 182.2096, "ARG_OF_PERICENTER": 231.5663, "MEAN_ANOMALY": 128.5248, "EPHEMERIS_TYPE": 0, "CLASSIFICATION_TYPE": "U", "NORAD_CAT_ID": 58702, "ELEMENT_SET_NO": 999, "REV_AT_EPOCH": 10951, "BSTAR": 0.00035242247, "MEAN_MOTION_DOT": 8.64e-05, "MEAN_MOTION_DDOT": 0}, "tle": {"line1": "1 58702U 24004C   25360.99865696  .00008640  00000+0  35242-3 0  9992", "line2": "2 58702  97.4605 182.2096 0003649 231.5663 128.5248 15.24670731109513"}}, "geometry": {"type": "Point", "coordinates": [-72.35550916380448, -82.26962424525638]}}, {"type": "Feature", "properties": {"norad_id": 58703, "name": "TIANMU-1 18", "group": "weather", "lat": -1.4060699701072972, "lon": -177.09755066730105, "alt_km": 496.4968974983258, "timestamp": "2025-12-27T07:26:24.864604+00:00", "meta": {"OBJECT_NAME": "TIANMU-1 18", "OBJECT_ID": "2024-004D", "EPOCH": "2025-12-26T23:34:14.767968", "MEAN_MOTION": 15.24652875, "ECCENTRICITY": 0.00030538, "INCLINATION": 97.4622, "RA_OF_ASC_NODE": 182.3915, "ARG_OF_PERICENTER": 227.6646, "MEAN_ANOMALY": 132.4333, "EPHEMERIS_TYPE": 0, "CLASSIFICATION_TYPE": "U", "NORAD_CAT_ID": 58703, "ELEMENT_SET_NO": 999, "REV_AT_EPOCH": 10951, "BSTAR": 0.00034067303, "MEAN_MOTION_DOT": 8.344e-05, "MEAN_MOTION_DDOT": 0}, "tle": {"line1": "1 58703U 24004D   25360.98211537  .00008344  00000+0  34067-3 0  9996", "line2": "2 58703  97.4622 182.3915 0003053 227.6646 132.4333 15.24652875109518"}}, "geometry": {"type": "Point", "coordinates": [-177.09755066730105, -1.4060699701072972]}}, {"type": "Feature", "properties": {"norad_id": 58990, "name": "INSAT-3DS", "group": "weather", "lat": -0.02972102349621385, "lon": -70.25271159584076, "alt_km": 35780.74060207544, "timestamp": "2025-12-27T07:26:24.864622+00:00", "meta": {"OBJECT_NAME": "INSAT-3DS", "OBJECT_ID": "2024-033A", "EPOCH": "2025-12-26T22:27:50.907168", "MEAN_MOTION": 1.00270784, "ECCENTRICITY": 0.00013651, "INCLINATION": 0.0642, "RA_OF_ASC_NODE": 98.7503, "ARG_OF_PERICENTER": 178.6019, "MEAN_ANOMALY": 237.3902, "EPHEMERIS_TYPE": 0, "CLASSIFICATION_TYPE": "U", "NORAD_CAT_ID": 58990, "ELEMENT_SET_NO": 999, "REV_AT_EPOCH": 4534, "BSTAR": 0, "MEAN_MOTION_DOT": -1.34e-06, "MEAN_MOTION_DDOT": 0}, "tle": {"line1": "1 58990U 24033A   25360.93600587 -.00000134  00000+0  00000+0 0  9994", "line2": "2 58990   0.0642  98.7503 0001365 178.6019 237.3902  1.00270784 45345"}}, "geometry": {"type": "Point", "coordinates": [-70.25271159584076, -0.02972102349621385]}}, {"type": "Feature", "properties": {"norad_id": 59051, "name": "METEOR-M2 4", "group": "weather", "lat": -43.52471136430194, "lon": 129.65053816038213, "alt_km": 823.8761464249446, "timestamp": "2025-12-27T07:26:24.864639+00:00", "meta": {"OBJECT_NAME": "METEOR-M2 4", "OBJECT_ID": "2024-039A", "EPOCH": "2025-12-26T23:38:11.311296", "MEAN_MOTION": 14.22403537, "ECCENTRICITY": 0.00063207, "INCLINATION": 98.6787, "RA_OF_ASC_NODE": 317.6717, "ARG_OF_PERICENTER": 315.2621, "MEAN_ANOMALY": 44.8047, "EPHEMERIS_TYPE": 0, "CLASSIFICATION_TYPE": "U", "NORAD_CAT_ID": 59051, "ELEMENT_SET_NO": 999, "REV_AT_EPOCH": 9478, "BSTAR": 4.6730788e-05, "MEAN_MOTION_DOT": 6e-07, "MEAN_MOTION_DDOT": 0}, "tle": {"line1": "1 59051U 24039A   25360.98485314  .00000060  00000+0  46731-4 0  9996", "line2": "2 59051  98.6787 317.6717 0006320 315.2621  44.8047 14.22403537 94786"}}, "geometry": {"type": "Point", "coordinates": [129.65053816038213, -43.52471136430194]}}, {"type": "Feature", "properties": {"norad_id": 60133, "name": "GOES 19", "group": "weather", "lat": 0.0030981483182410544, "lon": 132.43479527100337, "alt_km": 35791.58244035808, "timestamp": "2025-12-27T07:26:24.864676+00:00", "meta": {"OBJECT_NAME": "GOES 19", "OBJECT_ID": "2024-119A", "EPOCH": "2025-12-26T12:35:56.409216", "MEAN_MOTION": 1.00266665, "ECCENTRICITY": 9.47e-05, "INCLINATION": 0.0307, "RA_OF_ASC_NODE": 217.6802, "ARG_OF_PERICENTER": 97.1965, "MEAN_ANOMALY": 254.1873, "EPHEMERIS_TYPE": 0, "CLASSIFICATION_TYPE": "U", "NORAD_CAT_ID": 60133, "ELEMENT_SET_NO": 999, "REV_AT_EPOCH": 523, "BSTAR": 0, "MEAN_MOTION_DOT": -2.26e-06, "MEAN_MOTION_DDOT": 0}, "tle": {"line1": "1 60133U 24119A   25360.52495844 -.00000226  00000+0  00000+0 0  9996", "line2": "2 60133   0.0307 217.6802 0000947  97.1965 254.1873  1.00266665  5230"}}, "geometry": {"type": "Point", "coordinates": [132.43479527100337, 0.0030981483182410544]}}, {"type": "Feature", "properties": {"norad_id": 65815, "name": "FENGYUN 3H", "group": "weather", "lat": -27.485523444731687, "lon": -54.86700673626861, "alt_km": 831.8377620572182, "timestamp": "2025-12-27T07:26:24.864695+00:00", "meta": {"OBJECT_NAME": "FENGYUN 3H", "OBJECT_ID": "2025-219A", "EPOCH": "2025-12-26T21:25:25.718592", "MEAN_MOTION": 14.19908581, "ECCENTRICITY": 8.745e-05, "INCLINATION": 98.6603, "RA_OF_ASC_NODE": 300.1769, "ARG_OF_PERICENTER": 109.9836, "MEAN_ANOMALY": 250.1435, "EPHEMERIS_TYPE": 0, "CLASSIFICATION_TYPE": "U", "NORAD_CAT_ID": 65815, "ELEMENT_SET_NO": 999, "REV_AT_EPOCH": 1293, "BSTAR": 7.8012117e-05, "MEAN_MOTION_DOT": 1.22e-06, "MEAN_MOTION_DDOT": 0}, "tle": {"line1": "1 65815U 25219A   25360.89265878  .00000122  00000+0  78012-4 0  9999", "line2": "2 65815  98.6603 300.1769 0000874 109.9836 250.1435 14.19908581 12931"}}, "geometry": {"type": "Point", "coordinates": [-54.86700673626861, -27.485523444731687]}}]}